NORAD_CAT_ID,OBJECT_NAME,OBJECT_TYPE,EPOCH,MEAN_MOTION,ECCENTRICITY,INCLINATION,RA_OF_ASC_NODE,ARG_OF_PERICENTER,MEAN_ANOMALY,BSTAR,MEAN_MOTION_DOT,MEAN_MOTION_DDOT,TLE_LINE0,TLE_LINE1,TLE_LINE2,SEMIMAJOR_AXIS,PERIOD,APOGEE,PERIGEE,DECAYED
49141.0,STARLINK-3093,PAYLOAD,2024-06-23 02:29:02,14.98332481,0.0002736,70.0,69.2711,261.4788,98.6061,5.2494e-05,5.33e-06,0.0,0 STARLINK-3093,1 49141U 21082M   24175.10350427  .00000533  00000-0  52494-4 0  9992,2 49141  70.0000  69.2711 0002736 261.4788  98.6061 14.98332481153628,6950.185,96.107,573.952,570.149,0.0
49141.0,STARLINK-3093,PAYLOAD,2024-06-23 21:42:39,14.98330602,0.0002841,69.9997,67.2507,265.8646,94.2188,6.5443e-06,-1.5e-07,0.0,0 STARLINK-3093,1 49141U 21082M   24175.90462583 -.00000015  00000-0  65443-5 0  9992,2 49141  69.9997  67.2507 0002841 265.8646  94.2188 14.98330602153747,6950.191,96.107,574.031,570.081,0.0
49141.0,STARLINK-3093,PAYLOAD,2024-06-24 02:31:03,14.98332096,0.0002826,69.9998,66.7459,265.8836,94.2,2.2786e-05,1.79e-06,0.0,0 STARLINK-3093,1 49141U 21082M   24176.10490420  .00000179  00000-0  22786-4 0  9998,2 49141  69.9998  66.7459 0002826 265.8836  94.2000 14.98332096153777,6950.186,96.107,574.016,570.087,0.0
49141.0,STARLINK-3093,PAYLOAD,2024-06-24 20:08:30,14.98353885,0.0003057,69.9993,64.8946,265.3941,94.6869,0.00018441,2.109e-05,0.0,0 STARLINK-3093,1 49141U 21082M   24176.83923879  .00002109  00000-0  18441-3 0  9994,2 49141  69.9993  64.8946 0003057 265.3941  94.6869 14.98353885153889,6950.119,96.105,574.109,569.859,0.0
49141.0,STARLINK-3093,PAYLOAD,2024-06-24 21:44:37,14.983715,0.0003237,69.9994,64.7276,267.0799,92.999,-8.7215e-05,-1.135e-05,0.0,0 STARLINK-3093,1 49141U 21082M   24176.90599439 -.00001135  00000-0 -87215-4 0  9999,2 49141  69.9994  64.7276 0003237 267.0799  92.9990 14.98371500153896,6950.065,96.104,574.179,569.68,0.0
49141.0,STARLINK-3093,PAYLOAD,2024-06-25 02:33:01,14.98357299,0.0003036,69.9993,64.2217,265.1221,94.9591,0.00021114,2.429e-05,0.0,0 STARLINK-3093,1 49141U 21082M   24177.10627176  .00002429  00000-0  21114-3 0  9992,2 49141  69.9993  64.2217 0003036 265.1221  94.9591 14.98357299153923,6950.108,96.105,574.084,569.863,0.0
49141.0,STARLINK-3093,PAYLOAD,2024-06-25 20:10:32,14.98327775,0.0003288,69.9988,62.3702,272.1661,87.9121,-9.7035e-05,-1.251e-05,0.0,0 STARLINK-3093,1 49141U 21082M   24177.84065626 -.00001251  00000-0 -97035-4 0  9999,2 49141  69.9988  62.3702 0003288 272.1661  87.9121 14.98327775154030,6950.2,96.107,574.35,569.78,0.0
49141.0,STARLINK-3093,PAYLOAD,2024-06-25 21:46:40,14.98329282,0.0002765,70.0001,62.2037,247.3846,112.7021,-7.7288e-05,-1.015e-05,0.0,0 STARLINK-3093,1 49141U 21082M   24177.90741386 -.00001015  00000-0 -77288-4 0  9996,2 49141  70.0001  62.2037 0002765 247.3846 112.7021 14.98329282154049,6950.195,96.107,573.982,570.138,0.0
49141.0,STARLINK-3093,PAYLOAD,2024-06-26 02:35:04,14.98329875,0.0003454,69.9984,61.6957,275.2699,84.8065,-9.2116e-05,-1.192e-05,0.0,0 STARLINK-3093,1 49141U 21082M   24178.10769450 -.00001192  00000-0 -92116-4 0  9994,2 49141  69.9984  61.6957 0003454 275.2699  84.8065 14.98329875154070,6950.193,96.107,574.459,569.658,0.0
49141.0,STARLINK-3093,PAYLOAD,2024-06-27 02:37:06,14.98327738,0.0002829,69.9998,59.174,259.1732,100.9109,-0.00027592,-3.383e-05,0.0,0 STARLINK-3093,1 49141U 21082M   24179.10910218 -.00003383  00000-0 -27592-3 0  9994,2 49141  69.9998  59.1740 0002829 259.1732 100.9109 14.98327738154223,6950.2,96.107,574.031,570.099,0.0
49141.0,STARLINK-3093,PAYLOAD,2024-06-27 09:01:37,14.98363929,0.0003133,70.0006,58.4991,228.3472,131.7419,-0.00083554,-0.00010057,0.0,0 STARLINK-3093,1 49141U 21082M   24179.37612982 -.00010057  00000-0 -83554-3 0  9996,2 49141  70.0006  58.4991 0003133 228.3472 131.7419 14.98363929154266,6950.088,96.105,574.13,569.776,0.0
49141.0,STARLINK-3093,PAYLOAD,2024-06-27 20:14:35,14.98319523,0.0002798,69.9999,57.3191,267.7939,92.29,7.7334e-05,8.3e-06,0.0,0 STARLINK-3093,1 49141U 21082M   24179.84346241  .00000830  00000-0  77334-4 0  9996,2 49141  69.9999  57.3191 0002798 267.7939  92.2900 14.98319523154330,6950.225,96.108,574.035,570.146,0.0
49141.0,STARLINK-3093,PAYLOAD,2024-06-27 21:50:43,14.98319634,0.0002794,69.9999,57.1508,267.6825,92.4014,7.7836e-05,8.36e-06,0.0,0 STARLINK-3093,1 49141U 21082M   24179.91022284  .00000836  00000-0  77836-4 0  9995,2 49141  69.9999  57.1508 0002794 267.6825  92.4014 14.98319634154341,6950.225,96.108,574.032,570.148,0.0
49141.0,STARLINK-3093,PAYLOAD,2024-06-27 23:26:51,14.98321196,0.0002757,69.9999,56.9826,267.2366,92.8478,9.5348e-05,1.045e-05,0.0,0 STARLINK-3093,1 49141U 21082M   24179.97698183  .00001045  00000-0  95348-4 0  9999,2 49141  69.9999  56.9826 0002757 267.2366  92.8478 14.98321196154351,6950.22,96.108,574.001,570.169,0.0
49141.0,STARLINK-3093,PAYLOAD,2024-06-28 20:16:35,14.98331161,0.0002882,69.9996,54.794,268.2014,91.8815,0.00013985,1.576e-05,0.0,0 STARLINK-3093,1 49141U 21082M   24180.84485795  .00001576  00000-0  13985-3 0  9995,2 49141  69.9996  54.7940 0002882 268.2014  91.8815 14.98331161154482,6950.189,96.107,574.057,570.051,0.0
49141.0,STARLINK-3093,PAYLOAD,2024-06-28 21:52:43,14.98331985,0.000287,69.9995,54.6255,268.3987,91.6844,0.00014435,1.63e-05,0.0,0 STARLINK-3093,1 49141U 21082M   24180.91161734  .00001630  00000-0  14435-3 0  9999,2 49141  69.9995  54.6255 0002870 268.3987  91.6844 14.98331985154491,6950.187,96.107,574.046,570.057,0.0
49141.0,STARLINK-3093,PAYLOAD,2024-06-29 01:04:59,14.98338887,0.0002794,69.9996,54.2891,267.1936,92.8903,0.00021897,2.521e-05,0.0,0 STARLINK-3093,1 49141U 21082M   24181.04513041  .00002521  00000-0  21897-3 0  9996,2 49141  69.9996  54.2891 0002794 267.1936  92.8903 14.98338887154510,6950.165,96.106,573.972,570.089,0.0
49141.0,STARLINK-3093,PAYLOAD,2024-06-29 20:18:38,14.98317787,0.0002861,70.0,52.272,262.9836,97.0998,-9.2801e-05,-1.2e-05,0.0,0 STARLINK-3093,1 49141U 21082M   24181.84627586 -.00001200  00000-0 -92801-4 0  9993,2 49141  70.0000  52.2720 0002861 262.9836  97.0998 14.98317787154635,6950.231,96.108,574.084,570.107,0.0
49141.0,STARLINK-3093,PAYLOAD,2024-06-29 21:54:46,14.98314882,0.0003115,69.9995,52.1014,270.471,89.6092,-0.00014726,-1.849e-05,0.0,0 STARLINK-3093,1 49141U 21082M   24181.91303899 -.00001849  00000-0 -14726-3 0  9997,2 49141  69.9995  52.1014 0003115 270.4710  89.6092 14.98314882154644,6950.24,96.108,574.27,569.94,0.0
49141.0,STARLINK-3093,PAYLOAD,2024-06-30 09:07:42,14.98323301,0.0003147,69.9992,50.923,273.1644,86.9155,-7.1703e-05,-9.48e-06,0.0,0 STARLINK-3093,1 49141U 21082M   24182.38035513 -.00000948  00000-0 -71703-4 0  9992,2 49141  69.9992  50.9230 0003147 273.1644  86.9155 14.98323301154712,6950.214,96.107,574.266,569.891,0.0
49141.0,STARLINK-3093,PAYLOAD,2024-06-30 13:56:06,14.98331447,0.0003502,69.9985,50.4181,276.5782,83.4978,-0.00015658,-1.961e-05,0.0,0 STARLINK-3093,1 49141U 21082M   24182.58063362 -.00001961  00000-0 -15658-3 0  9999,2 49141  69.9985  50.4181 0003502 276.5782  83.4978 14.98331447154747,6950.188,96.107,574.487,569.619,0.0
49141.0,STARLINK-3093,PAYLOAD,2024-06-30 21:56:46,14.98336381,0.0003273,69.999,49.5758,271.0754,89.003,-5.874e-05,-7.94e-06,0.0,0 STARLINK-3093,1 49141U 21082M   24182.91442734 -.00000794  00000-0 -58740-4 0  9993,2 49141  69.9990  49.5758 0003273 271.0754  89.0030 14.98336381154794,6950.173,96.107,574.313,569.763,0.0
49141.0,STARLINK-3093,PAYLOAD,2024-07-01 01:09:02,14.98341445,0.0003403,69.9989,49.2388,275.127,84.9501,-3.6345e-05,-5.27e-06,0.0,0 STARLINK-3093,1 49141U 21082M   24183.04794322 -.00000527  00000-0 -36345-4 0  9992,2 49141  69.9989  49.2388 0003403 275.1270  84.9501 14.98341445154818,6950.157,96.106,574.388,569.657,0.0
49141.0,STARLINK-3093,PAYLOAD,2024-07-01 21:58:46,14.98332014,0.0003296,69.9994,47.0504,274.4788,85.5995,0.00030974,3.605e-05,0.0,0 STARLINK-3093,1 49141U 21082M   24183.91582035  .00003605  00000-0  30974-3 0  9993,2 49141  69.9994  47.0504 0003296 274.4788  85.5995 14.98332014154946,6950.187,96.107,574.342,569.761,0.0
49141.0,STARLINK-3093,PAYLOAD,2024-07-02 14:00:08,14.98332778,0.0003,70.001,45.3685,272.9124,87.1691,8.1605e-05,8.81e-06,0.0,0 STARLINK-3093,1 49141U 21082M   24184.58342613  .00000881  00000-0  81605-4 0  9994,2 49141  70.0010  45.3685 0003000 272.9124  87.1691 14.98332778155049,6950.184,96.107,574.134,569.964,0.0
49141.0,STARLINK-3093,PAYLOAD,2024-07-02 22:00:48,14.98329626,0.0003102,70.0004,44.5268,271.8205,88.2599,3.3406e-05,3.06e-06,0.0,0 STARLINK-3093,1 49141U 21082M   24184.91722821  .00000306  00000-0  33406-4 0  9992,2 49141  70.0004  44.5268 0003102 271.8205  88.2599 14.98329626155093,6950.194,96.107,574.215,569.903,0.0
49141.0,STARLINK-3093,PAYLOAD,2024-07-03 20:26:40,14.98337069,0.0003068,69.9999,42.1694,268.9642,91.1165,-5.3646e-05,-7.33e-06,0.0,0 STARLINK-3093,1 49141U 21082M   24185.85186215 -.00000733  00000-0 -53646-4 0  9991,2 49141  69.9999  42.1694 0003068 268.9642  91.1165 14.98337069155231,6950.171,96.107,574.168,569.904,0.0
49141.0,STARLINK-3093,PAYLOAD,2024-07-03 22:02:49,14.98327271,0.00035,70.0002,42.0014,272.9323,87.1435,0.00010843,1.201e-05,0.0,0 STARLINK-3093,1 49141U 21082M   24185.91862405  .00001201  00000-0  10843-3 0  9990,2 49141  70.0002  42.0014 0003500 272.9323  87.1435 14.98327271155246,6950.201,96.107,574.499,569.634,0.0
49141.0,STARLINK-3093,PAYLOAD,2024-07-04 14:04:09,14.98329615,0.0002827,70.0,40.318,270.4263,89.6572,-1.9329e-05,-3.24e-06,0.0,0 STARLINK-3093,1 49141U 21082M   24186.58622466 -.00000324  00000-0 -19329-4 0  9991,2 49141  70.0000  40.3180 0002827 270.4263  89.6572 14.98329615155340,6950.194,96.107,574.024,570.094,0.0
49141.0,STARLINK-3093,PAYLOAD,2024-07-04 20:28:41,14.9832897,0.0003031,69.9999,39.6446,269.5578,90.5233,3.7008e-05,3.49e-06,0.0,0 STARLINK-3093,1 49141U 21082M   24186.85326350  .00000349  00000-0  37008-4 0  9993,2 49141  69.9999  39.6446 0003031 269.5578  90.5233 14.98328970155388,6950.196,96.107,574.168,569.954,0.0
